{
  "norad_id": 67469,
  "name": "STARLINK-36441",
  "history": [
    {
      "epoch": "2026-03-28T17:59:57.716448Z",
      "apogee_km": 483.1985110126943,
      "perigee_km": 482.87713358401834,
      "latitude_deg": -2.451365077437115e-05,
      "longitude_deg": 1.7278451098773984,
      "height_km": 482.69581730005115,
      "semi_major_axis_km": 6861.174822298356,
      "eccentricity": 2.342e-05,
      "inclination_deg": 43.0021,
      "raan_deg": 97.8843,
      "arg_perigee_deg": 317.1607,
      "mean_anomaly_deg": 42.9226,
      "mean_motion_rev_day": 15.27583765
    }
  ]
}